STARLINK-37701          
1 69306U 26119L   26168.58334491 -.02561128  00000+0 -28237-1 0  9992
2 69306  97.2841 194.4347 0001372 104.4136 196.3299 15.66567545  4105
STARLINK-37732          
1 69307U 26119M   26168.58334491 -.02577385  00000+0 -22051-1 0  9993
2 69307  97.2840 194.4569 0001268  98.1159 254.1667 15.72676102  4119
STARLINK-37689          
1 69308U 26119N   26168.58334491  .00031462  00000+0  57738-3 0  9993
2 69308  97.2846 194.2556 0000642  73.1939 167.3624 15.49212109  4119
STARLINK-37619          
1 69309U 26119P   26168.58334491 -.02564546  00000+0 -24235-1 0  9996
2 69309  97.2838 194.4551 0001233  96.8069 251.1508 15.70312468  4117
STARLINK-37794          
1 69310U 26119Q   26168.58334491 -.01591265  00000+0 -24855-1 0  9993
2 69310  97.2851 194.3996 0002129  95.0784 114.2875 15.57080198  4119
STARLINK-37795          
1 69311U 26119R   26168.58334491  .00023037  00000+0  42384-3 0  9997
2 69311  97.2890 194.2669 0000775 102.0656 163.9210 15.49200106  4119
STARLINK-37790          
1 69312U 26119S   26168.58334491 -.02538113  00000+0 -30071-1 0  9996
2 69312  97.2841 194.4410 0001411 107.7163 207.4382 15.64746098  4111
STARLINK-37676          
1 69313U 26119T   26168.58334491 -.02554812  00000+0 -20834-1 0  9997
2 69313  97.2841 194.4771 0001406  75.9329 323.3630 15.73759048  4119
STARLINK-37617          
1 69314U 26119U   26168.58334491 -.02442207  00000+0 -28927-1 0  9993
2 69314  97.2847 194.4434 0001564 112.4987 205.0087 15.64608132  4113
STARLINK-37627          
1 69315U 26119V   26168.58334491 -.02559555  00000+0 -30046-1 0  9994
2 69315  97.2844 194.4519 0001290  94.1373 246.5627 15.65010574  4114
STARLINK-37738          
1 69316U 26119W   26168.58334491 -.01041093  00000+0 -12643-1 0  9990
2 69316  97.2843 194.4426 0001251  98.8860 212.2991 15.63335235  4116
STARLINK-37799          
1 69317U 26119X   26168.58334491 -.02553295  00000+0 -18684-1 0  9995
2 69317  97.2840 194.4805 0001259  83.5723 324.9059 15.76838048  4066
STARLINK-37802          
1 69318U 26119Y   26168.58334491 -.02514675  00000+0 -23173-1 0  9994
2 69318  97.2843 194.4759 0001308  82.0345 311.7950 15.70840922  4115
STARLINK-37803          
1 69319U 26119Z   26168.58334491 -.00693593  00000+0 -10472-1 0  9998
2 69319  97.2847 194.3992 0001470  78.5527 127.8616 15.57028923  4063
GUOWANG TEST OBJECT A   
1 69320U 26120A   26158.46264223  .00009002  00000+0  24096-3 0  9996
2 69320  54.9967  71.5399 0009599 294.3963  65.6063 15.38803685  1198
GUOWANG TEST OBJECT B   
1 69321U 26120B   26168.00875735  .00008236  00000+0  22202-3 0  9999
2 69321  54.9984  28.5393 0010110 330.2377  29.8075 15.38703032  2667
GUOWANG TEST OBJECT C   
1 69322U 26120C   26158.91389784  .00016153  00000+0  41736-3 0  9993
2 69322  54.9968  69.4792 0009850 309.3319  50.6835 15.39284097  1266
GUOWANG TEST OBJECT D   
1 69323U 26120D   26167.35516612  .00001852  00000+0  57263-4 0  9997
2 69323  54.9990  31.4391 0011112 342.7076  17.3573 15.39015221  2565
QIANFAN-163             
1 69325U 26121A   26168.37294464  .00000014  00000+0  29629-5 0  9996
2 69325  89.0147 300.4966 0020103 188.4011 171.6812 13.59758182  2189
QIANFAN-164             
1 69326U 26121B   26162.41240743  .00000112  00000+0  13228-3 0  9992
2 69326  89.0157 301.0998 0019383 205.3125 154.7084 13.60355109  1373
SZ-22 MODULE            
1 69328U 25272C   26167.85575198  .00018201  00000+0  22051-3 0  9990
2 69328  41.4806 324.1231 0006297  83.9376 276.2180 15.60203853  3270
STARLINK-37733          
1 69329U 26122A   26168.60659412  .00120869  00000+0  62184-3 0  9997
2 69329  97.2825 198.0722 0000871 112.5874 247.5487 15.80858954  2223
STARLINK-37772          
1 69330U 26122B   26168.41139683  .01022105  00000+0  46306-2 0  9993
2 69330  97.2823 197.8786 0002383 278.3477  81.7521 15.81328416  2199
STARLINK-37768          
1 69331U 26122C   26168.58334491 -.02449379  00000+0 -21101-1 0  9990
2 69331  97.2838 198.0544 0001540 107.0330 139.1095 15.72937470  3361
STARLINK-37833          
1 69332U 26122D   26168.59922824 -.00574158  00000+0 -32560-2 0  9999
2 69332  97.2823 198.0826 0004817 201.4811 158.6256 15.80393178  2221
STARLINK-37818          
1 69333U 26122E   26168.34801883 -.00757161  00000+0 -44633-2 0  9995
2 69333  97.2822 197.8120 0000957 163.0906 197.0394 15.80040347  2186
STARLINK-37868          
1 69334U 26122F   26168.58334491 -.01227685  00000+0 -71146-2 0  9991
2 69334  97.2837 198.0782 0001153 103.3732 197.7329 15.81142006  3411
STARLINK-37877          
1 69335U 26122G   26168.58334491 -.02542254  00000+0 -24384-1 0  9996
2 69335  97.2841 198.0613 0001635 103.8997 158.5821 15.69921343  3410
STARLINK-37791          
1 69336U 26122H   26168.58334491 -.02463097  00000+0 -16929-1 0  9990
2 69336  97.2832 198.0817 0001291 119.7706 188.4772 15.78087896  3412
