OBJECT_NAME,OBJECT_ID,EPOCH,MEAN_MOTION,ECCENTRICITY,INCLINATION,RA_OF_ASC_NODE,ARG_OF_PERICENTER,MEAN_ANOMALY,EPHEMERIS_TYPE,CLASSIFICATION_TYPE,NORAD_CAT_ID,ELEMENT_SET_NO,REV_AT_EPOCH,BSTAR,MEAN_MOTION_DOT,MEAN_MOTION_DDOT
STARLINK-37701,2026-119L,2026-06-17T14:00:01.000224,15.66567545,.00013728,97.2841,194.4347,104.4136,196.3299,0,U,69306,999,410,-.28237276E-1,-.2561128E-1,0
STARLINK-37732,2026-119M,2026-06-17T14:00:01.000224,15.72676102,.00012681,97.2840,194.4569,98.1159,254.1667,0,U,69307,999,411,-.22051291E-1,-.2577385E-1,0
STARLINK-37689,2026-119N,2026-06-17T14:00:01.000224,15.49212109,.00006426,97.2846,194.2556,73.1939,167.3624,0,U,69308,999,411,.5773828E-3,.31462E-3,0
STARLINK-37619,2026-119P,2026-06-17T14:00:01.000224,15.70312468,.00012334,97.2838,194.4551,96.8069,251.1508,0,U,69309,999,411,-.24234865E-1,-.2564546E-1,0
STARLINK-37794,2026-119Q,2026-06-17T14:00:01.000224,15.57080198,.0002129,97.2851,194.3996,95.0784,114.2875,0,U,69310,999,411,-.2485523E-1,-.1591265E-1,0
STARLINK-37795,2026-119R,2026-06-17T14:00:01.000224,15.49200106,.00007752,97.2890,194.2669,102.0656,163.9210,0,U,69311,999,411,.42384018E-3,.23037E-3,0
STARLINK-37790,2026-119S,2026-06-17T14:00:01.000224,15.64746098,.00014114,97.2841,194.4410,107.7163,207.4382,0,U,69312,999,411,-.30071007E-1,-.2538113E-1,0
STARLINK-37676,2026-119T,2026-06-17T14:00:01.000224,15.73759048,.00014067,97.2841,194.4771,75.9329,323.3630,0,U,69313,999,411,-.20834107E-1,-.2554812E-1,0
STARLINK-37617,2026-119U,2026-06-17T14:00:01.000224,15.64608132,.00015648,97.2847,194.4434,112.4987,205.0087,0,U,69314,999,411,-.28926798E-1,-.2442207E-1,0
STARLINK-37627,2026-119V,2026-06-17T14:00:01.000224,15.65010574,.00012907,97.2844,194.4519,94.1373,246.5627,0,U,69315,999,411,-.30046383E-1,-.2559555E-1,0
STARLINK-37738,2026-119W,2026-06-17T14:00:01.000224,15.63335235,.00012516,97.2843,194.4426,98.8860,212.2991,0,U,69316,999,411,-.1264253E-1,-.1041093E-1,0
STARLINK-37799,2026-119X,2026-06-17T14:00:01.000224,15.76838048,.00012599,97.2840,194.4805,83.5723,324.9059,0,U,69317,999,406,-.18684364E-1,-.2553295E-1,0
STARLINK-37802,2026-119Y,2026-06-17T14:00:01.000224,15.70840922,.00013088,97.2843,194.4759,82.0345,311.7950,0,U,69318,999,411,-.23173278E-1,-.2514675E-1,0
STARLINK-37803,2026-119Z,2026-06-17T14:00:01.000224,15.57028923,.00014705,97.2847,194.3992,78.5527,127.8616,0,U,69319,999,406,-.1047163E-1,-.693593E-2,0
GUOWANG TEST OBJECT A,2026-120A,2026-06-07T11:06:12.288672,15.38803685,.00095994,54.9967,71.5399,294.3963,65.6063,0,U,69320,999,119,.24095813E-3,.9002E-4,0
GUOWANG TEST OBJECT B,2026-120B,2026-06-17T00:12:36.635040,15.38703032,.00101101,54.9984,28.5393,330.2377,29.8075,0,U,69321,999,266,.22202035E-3,.8236E-4,0
GUOWANG TEST OBJECT C,2026-120C,2026-06-07T21:56:00.773376,15.39284097,.00098504,54.9968,69.4792,309.3319,50.6835,0,U,69322,999,126,.41735581E-3,.16153E-3,0
GUOWANG TEST OBJECT D,2026-120D,2026-06-16T08:31:26.352768,15.39015221,.00111128,54.9990,31.4391,342.7076,17.3573,0,U,69323,999,256,.57263237E-4,.1852E-4,0
QIANFAN-163,2026-121A,2026-06-17T08:57:02.416896,13.59758182,.00201031,89.0147,300.4966,188.4011,171.6812,0,U,69325,999,218,.2962905E-5,.14E-6,0
QIANFAN-164,2026-121B,2026-06-11T09:53:52.001952,13.60355109,.0019383,89.0157,301.0998,205.3125,154.7084,0,U,69326,999,137,.13228E-3,.112E-5,0
SZ-22 MODULE,2025-272C,2026-06-16T20:32:16.971072,15.60203853,.00062974,41.4806,324.1231,83.9376,276.2180,0,U,69328,999,327,.22050625E-3,.18201E-3,0
STARLINK-37733,2026-122A,2026-06-17T14:33:29.731968,15.80858954,.00008713,97.2825,198.0722,112.5874,247.5487,0,U,69329,999,222,.62184298E-3,.120869E-2,0
STARLINK-37772,2026-122B,2026-06-17T09:52:24.686112,15.81328416,.00023833,97.2823,197.8786,278.3477,81.7521,0,U,69330,999,219,.46306481E-2,.1022105E-1,0
STARLINK-37768,2026-122C,2026-06-17T14:00:01.000224,15.72937470,.00015405,97.2838,198.0544,107.0330,139.1095,0,U,69331,999,336,-.21101107E-1,-.2449379E-1,0
STARLINK-37833,2026-122D,2026-06-17T14:22:53.319936,15.80393178,.00048177,97.2823,198.0826,201.4811,158.6256,0,U,69332,999,222,-.32559933E-2,-.574158E-2,0
STARLINK-37818,2026-122E,2026-06-17T08:21:08.826912,15.80040347,.00009575,97.2822,197.8120,163.0906,197.0394,0,U,69333,999,218,-.4463274E-2,-.757161E-2,0
STARLINK-37868,2026-122F,2026-06-17T14:00:01.000224,15.81142006,.00011539,97.2837,198.0782,103.3732,197.7329,0,U,69334,999,341,-.71145731E-2,-.1227685E-1,0
STARLINK-37877,2026-122G,2026-06-17T14:00:01.000224,15.69921343,.00016351,97.2841,198.0613,103.8997,158.5821,0,U,69335,999,341,-.24383761E-1,-.2542254E-1,0
STARLINK-37791,2026-122H,2026-06-17T14:00:01.000224,15.78087896,.00012911,97.2832,198.0817,119.7706,188.4772,0,U,69336,999,341,-.16929129E-1,-.2463097E-1,0
